IRIDIUM 171             
1 43929U 19002H   24056.84600380  .00000496  00000+0  17003-3 0  9997
2 43929  86.4034 345.8252 0002282  86.6851 273.4606 14.34220546268220
IRIDIUM 170             
1 43930U 19002J   24056.50156562  .00001783  00000+0  27879-3 0  9992
2 43930  86.6153 345.8069 0002630  90.2336 269.9183 14.72258242275277
IRIDIUM 167             
1 43931U 19002K   24056.56059015  .00000030  00000+0  34791-5 0  9991
2 43931  86.4026 345.7463 0002267  86.3149 273.8306 14.34217317268185
IRIDIUM 181             
1 56726U 23068S   24056.67568504  .00000669  00000+0  19184-3 0  9999
2 56726  86.8635  33.9327 0002788  97.5876 262.5642 14.43594079 40904
IRIDIUM 177             
1 56727U 23068T   24056.80369533  .00002574  00000+0  33530-3 0  9994
2 56727  86.2014   8.7027 0002734  92.1023 268.0511 14.80223475 41753
IRIDIUM 174             
1 56728U 23068U   24056.59541972  .00002755  00000+0  35909-3 0  9993
2 56728  86.2026   8.8953 0002415  91.4487 268.7010 14.80230650 41729
IRIDIUM 178             
1 56729U 23068V   24056.86041317  .00002643  00000+0  34440-3 0  9997
2 56729  86.5811  20.8992 0002424  89.2208 270.9291 14.80236941 41767
IRIDIUM 179             
1 56730U 23068W   24056.85497634  .00004347  00000+0  56851-3 0  9998
2 56730  86.6815  23.6183 0002525  92.9584 267.1927 14.80234028 41765
